{
    "links": {
        "self": "http://www.neowsapp.com/rest/v1/neo/3627111?api_key=iIulBulltgU6a56xZRHN4H3l9WmuAYTsLGpBGhQ2"
    },
    "id": "3627111",
    "neo_reference_id": "3627111",
    "name": "(2013 DC1)",
    "designation": "2013 DC1",
    "nasa_jpl_url": "http://ssd.jpl.nasa.gov/sbdb.cgi?sstr=3627111",
    "absolute_magnitude_h": 24.3,
    "estimated_diameter": {
        "kilometers": {
            "estimated_diameter_min": 0.0366906138,
            "estimated_diameter_max": 0.0820427065
        },
        "meters": {
            "estimated_diameter_min": 36.6906137531,
            "estimated_diameter_max": 82.0427064882
        },
        "miles": {
            "estimated_diameter_min": 0.0227984834,
            "estimated_diameter_max": 0.0509789586
        },
        "feet": {
            "estimated_diameter_min": 120.3760332259,
            "estimated_diameter_max": 269.1689931548
        }
    },
    "is_potentially_hazardous_asteroid": false,
    "close_approach_data": [
        {
            "close_approach_date": "2013-02-06",
            "close_approach_date_full": "2013-Feb-06 07:15",
            "epoch_date_close_approach": 1360134900000,
            "relative_velocity": {
                "kilometers_per_second": "10.7330106061",
                "kilometers_per_hour": "38638.8381821364",
                "miles_per_hour": "24008.6714248947"
            },
            "miss_distance": {
                "astronomical": "0.0142158264",
                "lunar": "5.5299564696",
                "kilometers": "2126657.349729768",
                "miles": "1321443.6009680784"
            },
            "orbiting_body": "Earth"
        }
    ],
    "orbital_data": {
        "orbit_id": "7",
        "orbit_determination_date": "2017-04-06 08:46:41",
        "first_observation_date": "2013-02-17",
        "last_observation_date": "2013-02-24",
        "data_arc_in_days": 7,
        "observations_used": 31,
        "orbit_uncertainty": "9",
        "minimum_orbit_intersection": ".0125426",
        "jupiter_tisserand_invariant": "3.990",
        "epoch_osculation": "2456342.5",
        "eccentricity": ".4751302539994112",
        "semi_major_axis": "1.742193871453654",
        "inclination": "9.75166610863943",
        "ascending_node_longitude": "140.0224104259957",
        "orbital_period": "839.9301083892937",
        "perihelion_distance": ".9144248547936618",
        "perihelion_argument": "315.3674053521923",
        "aphelion_distance": "2.569962888113646",
        "perihelion_time": "2456297.533260647181",
        "mean_anomaly": "19.27306332434979",
        "mean_motion": ".4286070905237105",
        "equinox": "J2000",
        "orbit_class": {
            "orbit_class_type": "APO",
            "orbit_class_description": "Near-Earth asteroid orbits which cross the Earth’s orbit similar to that of 1862 Apollo",
            "orbit_class_range": "a (semi-major axis) > 1.0 AU; q (perihelion) < 1.017 AU"
        }
    },
    "is_sentry_object": false
}